CCSDS_OMM_VERS = 2.0
CREATION_DATE  = 
ORIGINATOR     = 

OBJECT_NAME    = SL-14 R/B
OBJECT_ID      = 1991-042B
CENTER_NAME    = EARTH
REF_FRAME      = TEME
TIME_SYSTEM    = UTC
MEAN_ELEMENT_THEORY = SGP/SGP4

EPOCH          = 2026-01-23T22:04:49.515456
MEAN_MOTION    = 14.81785520
ECCENTRICITY   = .00178953
INCLINATION    = 82.4916
RA_OF_ASC_NODE = 262.1737
ARG_OF_PERICENTER = 32.5777
MEAN_ANOMALY   = 327.6537

EPHEMERIS_TYPE = 0
CLASSIFICATION_TYPE = U
NORAD_CAT_ID   = 21423
ELEMENT_SET_NO = 999
REV_AT_EPOCH   = 84644
BSTAR          = .97354249E-4
MEAN_MOTION_DOT = .793E-5
MEAN_MOTION_DDOT = 0

CCSDS_OMM_VERS = 2.0
CREATION_DATE  = 
ORIGINATOR     = 

OBJECT_NAME    = ERS-1
OBJECT_ID      = 1991-050A
CENTER_NAME    = EARTH
REF_FRAME      = TEME
TIME_SYSTEM    = UTC
MEAN_ELEMENT_THEORY = SGP/SGP4

EPOCH          = 2026-01-23T12:21:10.034208
MEAN_MOTION    = 14.39406514
ECCENTRICITY   = .0031524
INCLINATION    = 98.7897
RA_OF_ASC_NODE = 40.6140
ARG_OF_PERICENTER = 338.1615
MEAN_ANOMALY   = 21.8227

EPHEMERIS_TYPE = 0
CLASSIFICATION_TYPE = U
NORAD_CAT_ID   = 21574
ELEMENT_SET_NO = 999
REV_AT_EPOCH   = 80923
BSTAR          = .22679918E-3
MEAN_MOTION_DOT = .663E-5
MEAN_MOTION_DDOT = 0

CCSDS_OMM_VERS = 2.0
CREATION_DATE  = 
ORIGINATOR     = 

OBJECT_NAME    = ARIANE 40 R/B
OBJECT_ID      = 1991-050F
CENTER_NAME    = EARTH
REF_FRAME      = TEME
TIME_SYSTEM    = UTC
MEAN_ELEMENT_THEORY = SGP/SGP4

EPOCH          = 2026-01-23T21:08:43.894176
MEAN_MOTION    = 14.42856229
ECCENTRICITY   = .00028528
INCLINATION    = 98.2103
RA_OF_ASC_NODE = 77.7790
ARG_OF_PERICENTER = 187.7042
MEAN_ANOMALY   = 172.4106

EPHEMERIS_TYPE = 0
CLASSIFICATION_TYPE = U
NORAD_CAT_ID   = 21610
ELEMENT_SET_NO = 999
REV_AT_EPOCH   = 81253
BSTAR          = .25161028E-3
MEAN_MOTION_DOT = .798E-5
MEAN_MOTION_DDOT = 0

CCSDS_OMM_VERS = 2.0
CREATION_DATE  = 
ORIGINATOR     = 

OBJECT_NAME    = INTERCOSMOS 25
OBJECT_ID      = 1991-086A
CENTER_NAME    = EARTH
REF_FRAME      = TEME
TIME_SYSTEM    = UTC
MEAN_ELEMENT_THEORY = SGP/SGP4

EPOCH          = 2026-01-23T19:48:19.761408
MEAN_MOTION    = 12.11873676
ECCENTRICITY   = .14861408
INCLINATION    = 82.6091
RA_OF_ASC_NODE = 337.1206
ARG_OF_PERICENTER = 213.6121
MEAN_ANOMALY   = 136.1471

EPHEMERIS_TYPE = 0
CLASSIFICATION_TYPE = U
NORAD_CAT_ID   = 21819
ELEMENT_SET_NO = 999
REV_AT_EPOCH   = 49125
BSTAR          = .31178712E-3
MEAN_MOTION_DOT = .158E-4
MEAN_MOTION_DDOT = 0

CCSDS_OMM_VERS = 2.0
CREATION_DATE  = 
ORIGINATOR     = 

OBJECT_NAME    = SL-8 R/B
OBJECT_ID      = 1992-008B
CENTER_NAME    = EARTH
REF_FRAME      = TEME
TIME_SYSTEM    = UTC
MEAN_ELEMENT_THEORY = SGP/SGP4

EPOCH          = 2026-01-23T06:49:53.657184
MEAN_MOTION    = 13.75967806
ECCENTRICITY   = .00333124
INCLINATION    = 82.9288
RA_OF_ASC_NODE = 301.5508
ARG_OF_PERICENTER = 261.5058
MEAN_ANOMALY   = 214.0219

EPHEMERIS_TYPE = 0
CLASSIFICATION_TYPE = U
NORAD_CAT_ID   = 21876
ELEMENT_SET_NO = 999
REV_AT_EPOCH   = 70317
BSTAR          = .12375729E-3
MEAN_MOTION_DOT = .135E-5
MEAN_MOTION_DDOT = 0

CCSDS_OMM_VERS = 2.0
CREATION_DATE  = 
ORIGINATOR     = 

OBJECT_NAME    = SL-8 R/B
OBJECT_ID      = 1992-020B
CENTER_NAME    = EARTH
REF_FRAME      = TEME
TIME_SYSTEM    = UTC
MEAN_ELEMENT_THEORY = SGP/SGP4

EPOCH          = 2026-01-23T17:30:02.814336
MEAN_MOTION    = 13.75540870
ECCENTRICITY   = .00300984
INCLINATION    = 82.9304
RA_OF_ASC_NODE = 187.1357
ARG_OF_PERICENTER = 64.5651
MEAN_ANOMALY   = 306.7442

EPHEMERIS_TYPE = 0
CLASSIFICATION_TYPE = U
NORAD_CAT_ID   = 21938
ELEMENT_SET_NO = 999
REV_AT_EPOCH   = 69495
BSTAR          = .18516085E-3
MEAN_MOTION_DOT = .194E-5
MEAN_MOTION_DDOT = 0

CCSDS_OMM_VERS = 2.0
CREATION_DATE  = 
ORIGINATOR     = 

OBJECT_NAME    = USA 81
OBJECT_ID      = 1992-023A
CENTER_NAME    = EARTH
REF_FRAME      = TEME
TIME_SYSTEM    = UTC
MEAN_ELEMENT_THEORY = SGP/SGP4

EPOCH          = 2026-01-23T19:26:12.710976
MEAN_MOTION    = 14.32347985
ECCENTRICITY   = .00021005
INCLINATION    = 85.0111
RA_OF_ASC_NODE = 157.3162
ARG_OF_PERICENTER = 115.0539
MEAN_ANOMALY   = 245.0872

EPHEMERIS_TYPE = 0
CLASSIFICATION_TYPE = U
NORAD_CAT_ID   = 21949
ELEMENT_SET_NO = 999
REV_AT_EPOCH   = 8836
BSTAR          = .14577013E-3
MEAN_MOTION_DOT = .413E-5
MEAN_MOTION_DDOT = 0

CCSDS_OMM_VERS = 2.0
CREATION_DATE  = 
ORIGINATOR     = 

OBJECT_NAME    = COSMOS 2219
OBJECT_ID      = 1992-076A
CENTER_NAME    = EARTH
REF_FRAME      = TEME
TIME_SYSTEM    = UTC
MEAN_ELEMENT_THEORY = SGP/SGP4

EPOCH          = 2026-01-23T22:56:13.596288
MEAN_MOTION    = 14.14081240
ECCENTRICITY   = .00208253
INCLINATION    = 71.0613
RA_OF_ASC_NODE = 111.5877
ARG_OF_PERICENTER = 269.1400
MEAN_ANOMALY   = 90.7337

EPHEMERIS_TYPE = 0
CLASSIFICATION_TYPE = U
NORAD_CAT_ID   = 22219
ELEMENT_SET_NO = 999
REV_AT_EPOCH   = 71205
BSTAR          = -.26639201E-4
MEAN_MOTION_DOT = -.98E-6
MEAN_MOTION_DDOT = 0

CCSDS_OMM_VERS = 2.0
CREATION_DATE  = 
ORIGINATOR     = 

OBJECT_NAME    = SL-16 R/B
OBJECT_ID      = 1992-076B
CENTER_NAME    = EARTH
REF_FRAME      = TEME
TIME_SYSTEM    = UTC
MEAN_ELEMENT_THEORY = SGP/SGP4

EPOCH          = 2026-01-23T23:55:51.410784
MEAN_MOTION    = 14.16850599
ECCENTRICITY   = .00124267
INCLINATION    = 71.0000
RA_OF_ASC_NODE = 282.5190
ARG_OF_PERICENTER = 173.8188
MEAN_ANOMALY   = 197.8840

EPHEMERIS_TYPE = 0
CLASSIFICATION_TYPE = U
NORAD_CAT_ID   = 22220
ELEMENT_SET_NO = 999
REV_AT_EPOCH   = 71550
BSTAR          = -.29865945E-4
MEAN_MOTION_DOT = -.108E-5
MEAN_MOTION_DDOT = 0

CCSDS_OMM_VERS = 2.0
CREATION_DATE  = 
ORIGINATOR     = 

OBJECT_NAME    = COSMOS 2221
OBJECT_ID      = 1992-080A
CENTER_NAME    = EARTH
REF_FRAME      = TEME
TIME_SYSTEM    = UTC
MEAN_ELEMENT_THEORY = SGP/SGP4

EPOCH          = 2026-01-23T19:50:06.080064
MEAN_MOTION    = 14.95986939
ECCENTRICITY   = .00143097
INCLINATION    = 82.5066
RA_OF_ASC_NODE = 322.0393
ARG_OF_PERICENTER = 350.9061
MEAN_ANOMALY   = 9.1899

EPHEMERIS_TYPE = 0
CLASSIFICATION_TYPE = U
NORAD_CAT_ID   = 22236
ELEMENT_SET_NO = 999
REV_AT_EPOCH   = 77408
BSTAR          = .34612989E-3
MEAN_MOTION_DOT = .3912E-4
MEAN_MOTION_DDOT = 0

CCSDS_OMM_VERS = 2.0
CREATION_DATE  = 
ORIGINATOR     = 

OBJECT_NAME    = SL-16 R/B
OBJECT_ID      = 1992-093B
CENTER_NAME    = EARTH
REF_FRAME      = TEME
TIME_SYSTEM    = UTC
MEAN_ELEMENT_THEORY = SGP/SGP4

EPOCH          = 2026-01-23T15:38:40.640064
MEAN_MOTION    = 14.15442887
ECCENTRICITY   = .00043464
INCLINATION    = 71.0222
RA_OF_ASC_NODE = 98.8159
ARG_OF_PERICENTER = 343.7062
MEAN_ANOMALY   = 16.3921

EPHEMERIS_TYPE = 0
CLASSIFICATION_TYPE = U
NORAD_CAT_ID   = 22285
ELEMENT_SET_NO = 999
REV_AT_EPOCH   = 70678
BSTAR          = .10724197E-3
MEAN_MOTION_DOT = .162E-5
MEAN_MOTION_DDOT = 0

CCSDS_OMM_VERS = 2.0
CREATION_DATE  = 
ORIGINATOR     = 

OBJECT_NAME    = COSMOS 2228
OBJECT_ID      = 1992-094A
CENTER_NAME    = EARTH
REF_FRAME      = TEME
TIME_SYSTEM    = UTC
MEAN_ELEMENT_THEORY = SGP/SGP4

EPOCH          = 2026-01-23T22:32:04.936992
MEAN_MOTION    = 14.96971676
ECCENTRICITY   = .0019611
INCLINATION    = 82.5178
RA_OF_ASC_NODE = 280.1575
ARG_OF_PERICENTER = 91.8303
MEAN_ANOMALY   = 268.5165

EPHEMERIS_TYPE = 0
CLASSIFICATION_TYPE = U
NORAD_CAT_ID   = 22286
ELEMENT_SET_NO = 999
REV_AT_EPOCH   = 76936
BSTAR          = .32841455E-3
MEAN_MOTION_DOT = .3815E-4
MEAN_MOTION_DDOT = 0

