SL-14 R/B               
1 21423U 91042B   26023.92001754  .00000793  00000+0  97354-4 0  9999
2 21423  82.4916 262.1737 0017895  32.5777 327.6537 14.81785520846443
ERS-1                   
1 21574U 91050A   26023.51469947  .00000663  00000+0  22680-3 0  9997
2 21574  98.7897  40.6140 0031524 338.1615  21.8227 14.39406514809237
ARIANE 40 R/B           
1 21610U 91050F   26023.88106359  .00000798  00000+0  25161-3 0  9999
2 21610  98.2103  77.7790 0002852 187.7042 172.4106 14.42856229812531
INTERCOSMOS 25          
1 21819U 91086A   26023.82522872  .00001580  00000+0  31179-3 0  9991
2 21819  82.6091 337.1206 1486140 213.6121 136.1471 12.11873676491257
SL-8 R/B                
1 21876U 92008B   26023.28464881  .00000135  00000+0  12376-3 0  9997
2 21876  82.9288 301.5508 0033312 261.5058 214.0219 13.75967806703173
SL-8 R/B                
1 21938U 92020B   26023.72919924  .00000194  00000+0  18516-3 0  9999
2 21938  82.9304 187.1357 0030098  64.5651 306.7442 13.75540870694959
USA 81                  
1 21949U 92023A   26023.80986934  .00000413  00000+0  14577-3 0  9995
2 21949  85.0111 157.3162 0002100 115.0539 245.0872 14.32347985 88364
COSMOS 2219             
1 22219U 92076A   26023.95571292 -.00000098  00000+0 -26639-4 0  9991
2 22219  71.0613 111.5877 0020825 269.1400  90.7337 14.14081240712054
SL-16 R/B               
1 22220U 92076B   26023.99712281 -.00000108  00000+0 -29866-4 0  9999
2 22220  71.0000 282.5190 0012426 173.8188 197.8840 14.16850599715509
COSMOS 2221             
1 22236U 92080A   26023.82645926  .00003912  00000+0  34613-3 0  9993
2 22236  82.5066 322.0393 0014309 350.9061   9.1899 14.95986939774082
SL-16 R/B               
1 22285U 92093B   26023.65185926  .00000162  00000+0  10724-3 0  9992
2 22285  71.0222  98.8159 0004346 343.7062  16.3921 14.15442887706781
COSMOS 2228             
1 22286U 92094A   26023.93894603  .00003815  00000+0  32841-3 0  9996
2 22286  82.5178 280.1575 0019611  91.8303 268.5165 14.96971676769363
